[
    {
        "Altitude(m)": 604969.089236703,
        "Argument of Periapsis(deg)": 0.0,
        "Eccentricity": 0.0,
        "Inclination(deg)": 60.0,
        "Latitude(deg)": -0.09274446170134741,
        "Longitude(deg)": -75.02247235242463,
        "Mean Anomaly(deg)": 0.0,
        "RAAN(deg)": 25.0,
        "Satellite Name": "Test1 110",
        "Satellite Number": 110,
        "Semi-Major Axis(m)": 6980739.136638005,
        "Time(s)": 0
    },
    {
        "Altitude(m)": 604900.0281487923,
        "Argument of Periapsis(deg)": 0.00010418945913296404,
        "Eccentricity": 0.0,
        "Inclination(deg)": 60.0,
        "Latitude(deg)": 0.44768155941908233,
        "Longitude(deg)": -74.754349574873,
        "Mean Anomaly(deg)": 0.6201061454618307,
        "RAAN(deg)": 24.99957995086026,
        "Satellite Name": "Test1 110",
        "Satellite Number": 110,
        "Semi-Major Axis(m)": 6980739.136638005,
        "Time(s)": 10
    }
]